{"type":"FeatureCollection","features":[{"type":"Feature","properties":{"mrc":"Les Appalaches"},"geometry":{"type":"MultiPolygon","coordinates":[[[[-71.10494,46.30920],[-70.97912,46.19065],[-70.97013,46.11589],[-71.10680,45.94610],[-71.15556,45.93096],[-71.14301,45.85246],[-71.16066,45.82981],[-71.16831,45.82348],[-71.18459,45.81876],[-71.19023,45.82194],[-71.27371,45.82956],[-71.34156,45.86856],[-71.39478,45.82337],[-71.38823,45.77333],[-71.39182,45.77089],[-71.39493,45.77046],[-71.43667,45.79875],[-71.46412,45.81675],[-71.46337,45.83652],[-71.46230,45.84052],[-71.45509,45.87267],[-71.68613,45.96671],[-71.62574,46.02506],[-71.50970,46.13718],[-71.52947,46.16314],[-71.41326,46.28965],[-71.32177,46.34904],[-71.25502,46.30143],[-71.10494,46.30920]]]]}},{"type":"Feature","properties":{"mrc":"L'Érable"},"geometry":{"type":"MultiPolygon","coordinates":[[[[-71.41326,46.28965],[-71.52947,46.16314],[-71.50970,46.13718],[-71.62574,46.02506],[-71.81711,46.13887],[-71.91319,46.10031],[-71.97151,46.13540],[-71.94135,46.25873],[-71.89169,46.32662],[-71.97460,46.38674],[-71.88115,46.45075],[-71.76121,46.36367],[-71.61811,46.45257],[-71.47846,46.39604],[-71.50850,46.33839],[-71.41326,46.28965]]]]}},{"type":"Feature","properties":{"mrc":"Lotbinière"},"geometry":{"type":"MultiPolygon","coordinates":[[[[-71.50144,46.68713],[-71.33124,46.57218],[-71.26838,46.52872],[-71.10282,46.35832],[-71.10494,46.30920],[-71.25502,46.30143],[-71.32177,46.34904],[-71.41326,46.28965],[-71.50850,46.33839],[-71.47846,46.39604],[-71.61811,46.45257],[-71.76121,46.36367],[-71.88115,46.45075],[-72.03757,46.55767],[-71.84682,46.67039],[-71.76407,46.62795],[-71.64312,46.63731],[-71.50144,46.68713]]]]}},{"type":"Feature","properties":{"mrc":"Bécancour"},"geometry":{"type":"MultiPolygon","coordinates":[[[[-71.88115,46.45075],[-71.97460,46.38674],[-71.89169,46.32662],[-71.94480,46.29296],[-72.01551,46.30521],[-72.11897,46.26145],[-72.21789,46.19520],[-72.28324,46.19433],[-72.40892,46.25937],[-72.48744,46.19361],[-72.60143,46.27644],[-72.44830,46.37603],[-72.24775,46.41795],[-72.20642,46.50755],[-72.10622,46.56108],[-72.03757,46.55767],[-71.88115,46.45075]]]]}},{"type":"Feature","properties":{"mrc":"Arthabaska"},"geometry":{"type":"MultiPolygon","coordinates":[[[[-71.46337,45.83652],[-71.46412,45.81675],[-71.54193,45.78733],[-71.63637,45.81436],[-71.76996,45.88530],[-71.87229,45.79992],[-71.87918,45.80281],[-71.88587,45.80335],[-71.90934,45.80369],[-72.02928,45.85373],[-72.09323,45.79710],[-72.13456,45.84137],[-72.26121,45.88960],[-72.32722,45.96863],[-72.30508,46.03299],[-72.16286,46.12282],[-72.21789,46.19520],[-72.11897,46.26145],[-72.01551,46.30521],[-71.94480,46.29296],[-71.89169,46.32662],[-71.94135,46.25873],[-71.97151,46.13540],[-71.91319,46.10031],[-71.81711,46.13887],[-71.62574,46.02506],[-71.68613,45.96671],[-71.45509,45.87267],[-71.46230,45.84052],[-71.46337,45.83652]]]]}},{"type":"Feature","properties":{"mrc":"Les Sources"},"geometry":{"type":"MultiPolygon","coordinates":[[[[-71.46412,45.81675],[-71.43667,45.79875],[-71.58551,45.69307],[-71.61184,45.71224],[-71.71608,45.61740],[-71.77527,45.65031],[-71.83187,45.60048],[-72.13370,45.76068],[-72.09323,45.79710],[-72.02928,45.85373],[-71.90934,45.80369],[-71.88587,45.80335],[-71.87918,45.80281],[-71.87229,45.79992],[-71.76996,45.88530],[-71.63637,45.81436],[-71.54193,45.78733],[-71.46412,45.81675]]]]}},{"type":"Feature","properties":{"mrc":"Le Haut-Saint-François"},"geometry":{"type":"MultiPolygon","coordinates":[[[[-71.38539,45.76293],[-71.20726,45.64249],[-71.23257,45.58074],[-71.15859,45.53589],[-71.13301,45.45825],[-71.13146,45.24671],[-71.22999,45.24947],[-71.30125,45.29636],[-71.40723,45.24160],[-71.60511,45.23858],[-71.64441,45.30650],[-71.81615,45.31775],[-71.83104,45.45314],[-71.75232,45.51849],[-71.70943,45.49294],[-71.62620,45.56685],[-71.71608,45.61740],[-71.61184,45.71224],[-71.58551,45.69307],[-71.43667,45.79875],[-71.39493,45.77046],[-71.38539,45.76293]]]]}},{"type":"Feature","properties":{"mrc":"Le Val-Saint-François"},"geometry":{"type":"MultiPolygon","coordinates":[[[[-72.13370,45.76068],[-71.83187,45.60048],[-71.77527,45.65031],[-71.71608,45.61740],[-71.62620,45.56685],[-71.70943,45.49294],[-71.75232,45.51849],[-71.83104,45.45314],[-71.87757,45.49552],[-71.98739,45.51924],[-72.10531,45.38524],[-72.14160,45.40630],[-72.15779,45.42822],[-72.23763,45.44977],[-72.24761,45.38187],[-72.26144,45.37523],[-72.46301,45.37518],[-72.45468,45.45087],[-72.40233,45.52827],[-72.31441,45.59707],[-72.23717,45.64620],[-72.31084,45.68837],[-72.22448,45.75834],[-72.13370,45.76068]]]]}},{"type":"Feature","properties":{"mrc":"Drummond"},"geometry":{"type":"MultiPolygon","coordinates":[[[[-72.30508,46.03299],[-72.32722,45.96863],[-72.26121,45.88960],[-72.13456,45.84137],[-72.09323,45.79710],[-72.13370,45.76068],[-72.22448,45.75834],[-72.31084,45.68837],[-72.23717,45.64620],[-72.31441,45.59707],[-72.57794,45.75251],[-72.70445,45.75912],[-72.85440,45.87799],[-72.75260,45.94305],[-72.80022,46.01330],[-72.72161,46.02713],[-72.71021,46.02373],[-72.66365,46.01024],[-72.65289,46.00913],[-72.58797,46.01612],[-72.51763,46.09758],[-72.47890,46.03540],[-72.35444,46.05880],[-72.30508,46.03299]]]]}},{"type":"Feature","properties":{"mrc":"Nicolet-Yamaska"},"geometry":{"type":"MultiPolygon","coordinates":[[[[-72.93928,46.10600],[-72.94472,46.07844],[-72.95216,46.08376],[-72.95358,46.08836],[-72.94653,46.08932],[-72.94960,46.09418],[-72.95915,46.08874],[-72.96031,46.08957],[-72.93928,46.10600]]],[[[-72.60143,46.27644],[-72.48744,46.19361],[-72.40892,46.25937],[-72.28324,46.19433],[-72.21789,46.19520],[-72.16286,46.12282],[-72.30508,46.03299],[-72.35444,46.05880],[-72.47890,46.03540],[-72.51763,46.09758],[-72.58797,46.01612],[-72.65289,46.00913],[-72.66365,46.01024],[-72.71021,46.02373],[-72.72161,46.02713],[-72.80022,46.01330],[-72.92936,46.06761],[-72.89933,46.11582],[-72.78297,46.14417],[-72.65233,46.20812],[-72.60143,46.27644]]]]}}]}
